[{"OBJECT_NAME":"OBJECT A","OBJECT_ID":"2024-105A","EPOCH":"2026-03-09T23:44:38.986368","MEAN_MOTION":15.16488121,"ECCENTRICITY":0.00126096,"INCLINATION":97.5907,"RA_OF_ASC_NODE":84.1581,"ARG_OF_PERICENTER":205.4504,"MEAN_ANOMALY":154.6109,"EPHEMERIS_TYPE":0,"CLASSIFICATION_TYPE":"U","NORAD_CAT_ID":59917,"ELEMENT_SET_NO":999,"REV_AT_EPOCH":9799,"BSTAR":0.00023793898,"MEAN_MOTION_DOT":4.573e-5,"MEAN_MOTION_DDOT":0},{"OBJECT_NAME":"CP5","OBJECT_ID":"2012-048F","EPOCH":"2026-03-09T13:13:18.209280","MEAN_MOTION":15.25131456,"ECCENTRICITY":0.0097184,"INCLINATION":64.6452,"RA_OF_ASC_NODE":121.238,"ARG_OF_PERICENTER":206.221,"MEAN_ANOMALY":153.3981,"EPHEMERIS_TYPE":0,"CLASSIFICATION_TYPE":"U","NORAD_CAT_ID":38763,"ELEMENT_SET_NO":999,"REV_AT_EPOCH":10155,"BSTAR":0.00057686,"MEAN_MOTION_DOT":0.00016437,"MEAN_MOTION_DDOT":0}]
